$$SOE
2460154.500000000, A.D. 2023-Jul-29 00:00:00.0000, 3.423741744222995E+08, -6.110479192648427E+07, 1.888667924601533E+06,
2460161.500000000, A.D. 2023-Aug-05 00:00:00.0000, 3.463826970942476E+08, -4.992375823596598E+07, 1.420526391325228E+06,
2460168.500000000, A.D. 2023-Aug-12 00:00:00.0000, 3.499989619309058E+08, -3.868603899891818E+07, 9.507710101378635E+05,
2460175.500000000, A.D. 2023-Aug-19 00:00:00.0000, 3.532261426887479E+08, -2.740516319421589E+07, 4.799536286140345E+05,
2460182.500000000, A.D. 2023-Aug-26 00:00:00.0000, 3.560677748798716E+08, -1.609422363823880E+07, 8.607429804373533E+03,
2460189.500000000, A.D. 2023-Sep-02 00:00:00.0000, 3.585277236581035E+08, -4.765880799414100E+06, -4.627528469658112E+05,
2460196.500000000, A.D. 2023-Sep-09 00:00:00.0000, 3.606101536719301E+08, 6.567631789530995E+06, -9.336306394852111E+05,
2460203.500000000, A.D. 2023-Sep-16 00:00:00.0000, 3.623195010106917E+08, 1.789450067587151E+07, -1.403547279894645E+06,
2460210.500000000, A.D. 2023-Sep-23 00:00:00.0000, 3.636604476024172E+08, 2.920332467154991E+07, -1.872041719160266E+06,
2460217.500000000, A.D. 2023-Sep-30 00:00:00.0000, 3.646378976585827E+08, 4.048310745484014E+07, -2.338670137177425E+06,
2460224.500000000, A.D. 2023-Oct-07 00:00:00.0000, 3.652569537534650E+08, 5.172325021612816E+07, -2.803005271875834E+06,
2460231.500000000, A.D. 2023-Oct-14 00:00:00.0000, 3.655228935189407E+08, 6.291354117879617E+07, -3.264635838417802E+06,
2460238.500000000, A.D. 2023-Oct-21 00:00:00.0000, 3.654411501108344E+08, 7.404414372382121E+07, -3.723166208918925E+06,
2460245.500000000, A.D. 2023-Oct-28 00:00:00.0000, 3.650172949456177E+08, 8.510558549290192E+07, -4.178216041839719E+06,
2460252.500000000, A.D. 2023-Nov-04 00:00:00.0000, 3.642570213817006E+08, 9.608874780111699E+07, -4.629419813249279E+06,
2460259.500000000, A.D. 2023-Nov-11 00:00:00.0000, 3.631661294466674E+08, 1.069848548474130E+08, -5.076426318757087E+06,
2460266.500000000, A.D. 2023-Nov-18 00:00:00.0000, 3.617505117532175E+08, 1.177854627352840E+08, -5.518898174513385E+06,
2460273.500000000, A.D. 2023-Nov-25 00:00:00.0000, 3.600161406003581E+08, 1.284824483928629E+08, -5.956511324654244E+06,
2460280.500000000, A.D. 2023-Dec-02 00:00:00.0000, 3.579690562132758E+08, 1.390679984391337E+08, -6.388954560819104E+06,
2460287.500000000, A.D. 2023-Dec-09 00:00:00.0000, 3.556153561275771E+08, 1.495345979874637E+08, -6.815929067509592E+06,
2460294.500000000, A.D. 2023-Dec-16 00:00:00.0000, 3.529611859366792E+08, 1.598750194413808E+08, -7.237148020309985E+06,
2460301.500000000, A.D. 2023-Dec-23 00:00:00.0000, 3.500127316834564E+08, 1.700823120039332E+08, -7.652336214413017E+06,
2460308.500000000, A.D. 2023-Dec-30 00:00:00.0000, 3.467762124877402E+08, 1.801497929791710E+08, -8.061229515897147E+06,
2460315.500000000, A.D. 2024-Jan-06 00:00:00.0000, 3.432578715771929E+08, 1.900710385343424E+08, -8.463574166630194E+06,
2460322.500000000, A.D. 2024-Jan-13 00:00:00.0000, 3.394639688430319E+08, 1.998398721368912E+08, -8.859126382636040E+06,
2460329.500000000, A.D. 2024-Jan-20 00:00:00.0000, 3.354007760896116E+08, 2.094503537638178E+08, -9.247652107263640E+06,
2460336.500000000, A.D. 2024-Jan-27 00:00:00.0000, 3.310745728959215E+08, 2.188967705477271E+08, -9.628926680357412E+06,
2460343.500000000, A.D. 2024-Feb-03 00:00:00.0000, 3.264916426128532E+08, 2.281736279210933E+08, -1.000273446208023E+07,
2460350.500000000, A.D. 2024-Feb-10 00:00:00.0000, 3.216582687294834E+08, 2.372756409746807E+08, -1.036886846100473E+07,
2460357.500000000, A.D. 2024-Feb-17 00:00:00.0000, 3.165807317057008E+08, 2.461977260425184E+08, -1.072712997882780E+07,
2460364.500000000, A.D. 2024-Feb-24 00:00:00.0000, 3.112653062683834E+08, 2.549349925306827E+08, -1.107732827395964E+07,
2460371.500000000, A.D. 2024-Mar-02 00:00:00.0000, 3.057182591643777E+08, 2.634827349582957E+08, -1.141928024938375E+07,
2460378.500000000, A.D. 2024-Mar-09 00:00:00.0000, 2.999458474758106E+08, 2.718364251477593E+08, -1.175281018262641E+07,
2460385.500000000, A.D. 2024-Mar-16 00:00:00.0000, 2.939543178630720E+08, 2.799917047602147E+08, -1.207774951798707E+07,
2460392.500000000, A.D. 2024-Mar-23 00:00:00.0000, 2.877499066038865E+08, 2.879443792808239E+08, -1.239393662098622E+07,
2460399.500000000, A.D. 2024-Mar-30 00:00:00.0000, 2.813388381572915E+08, 2.956904134209556E+08, -1.270121629120564E+07,
2460406.500000000, A.D. 2024-Apr-06 00:00:00.0000, 2.747273224824765E+08, 3.032259245691455E+08, -1.299943933150908E+07,
2460413.500000000, A.D. 2024-Apr-13 00:00:00.0000, 2.679215546454400E+08, 3.105471751253854E+08, -1.328846243113419E+07,
2460420.500000000, A.D. 2024-Apr-20 00:00:00.0000, 2.609277157411709E+08, 3.176505663882933E+08, -1.356814805654559E+07,
2460427.500000000, A.D. 2024-Apr-27 00:00:00.0000, 2.537519735939135E+08, 3.245326334280700E+08, -1.383836425633305E+07,
2460434.500000000, A.D. 2024-May-04 00:00:00.0000, 2.464004833061815E+08, 3.311900402374436E+08, -1.409898444532016E+07,
2460441.500000000, A.D. 2024-May-11 00:00:00.0000, 2.388793878800352E+08, 3.376195750539589E+08, -1.434988719776978E+07,
2460448.500000000, A.D. 2024-May-18 00:00:00.0000, 2.311948189792602E+08, 3.438181458692482E+08, -1.459095605513699E+07,
2460455.500000000, A.D. 2024-May-25 00:00:00.0000, 2.233528978443244E+08, 3.497827761107565E+08, -1.482207935080348E+07,
2460462.500000000, A.D. 2024-Jun-01 00:00:00.0000, 2.153597364065762E+08, 3.555106004303601E+08, -1.504315006133400E+07,
2460469.500000000, A.D. 2024-Jun-08 00:00:00.0000, 2.072214388340492E+08, 3.609988605702212E+08, -1.525406570788591E+07,
2460476.500000000, A.D. 2024-Jun-15 00:00:00.0000, 1.989441038959402E+08, 3.662449018475918E+08, -1.545472829912618E+07,
2460483.500000000, A.D. 2024-Jun-22 00:00:00.0000, 1.905338271313780E+08, 3.712461714309926E+08, -1.564504412697326E+07,
2460490.500000000, A.D. 2024-Jun-29 00:00:00.0000, 1.819967006913331E+08, 3.760002165826284E+08, -1.582492336859140E+07,
2460497.500000000, A.D. 2024-Jul-06 00:00:00.0000, 1.733388134910313E+08, 3.805046803966145E+08, -1.599427993864079E+07,
2460504.500000000, A.D. 2024-Jul-13 00:00:00.0000, 1.645662536202666E+08, 3.847572978569118E+08, -1.615303154018128E+07,
2460511.500000000, A.D. 2024-Jul-20 00:00:00.0000, 1.556851110217482E+08, 3.887558933575305E+08, -1.630109963824570E+07,
2460518.500000000, A.D. 2024-Jul-27 00:00:00.0000, 1.467014797747777E+08, 3.924983787201238E+08, -1.643840937401673E+07,
2460525.500000000, A.D. 2024-Aug-03 00:00:00.0000, 1.376214602509755E+08, 3.959827513305874E+08, -1.656488947512367E+07,
2460532.500000000, A.D. 2024-Aug-10 00:00:00.0000, 1.284511613023158E+08, 3.992070923877562E+08, -1.668047217761962E+07,
2460539.500000000, A.D. 2024-Aug-17 00:00:00.0000, 1.191967025237718E+08, 4.021695652841733E+08, -1.678509316228947E+07,
2460546.500000000, A.D. 2024-Aug-24 00:00:00.0000, 1.098642166137479E+08, 4.048684140955267E+08, -1.687869150981241E+07,
2460553.500000000, A.D. 2024-Aug-31 00:00:00.0000, 1.004598519434815E+08, 4.073019621167607E+08, -1.696120969059980E+07,
2460560.500000000, A.D. 2024-Sep-07 00:00:00.0000, 9.098977569665313E+07, 4.094686105717558E+08, -1.703259361275762E+07,
2460567.500000000, A.D. 2024-Sep-14 00:00:00.0000, 8.146017766113935E+07, 4.113668384944594E+08, -1.709279265508106E+07,
2460574.500000000, A.D. 2024-Sep-21 00:00:00.0000, 7.187727264239103E+07, 4.129952041945224E+08, -1.714175946579373E+07,
2460581.500000000, A.D. 2024-Sep-28 00:00:00.0000, 6.224730100634312E+07, 4.143523450770515E+08, -1.717944974580640E+07,
2460588.500000000, A.D. 2024-Oct-05 00:00:00.0000, 5.257653101508002E+07, 4.154369758219728E+08, -1.720582235292447E+07,
2460595.500000000, A.D. 2024-Oct-12 00:00:00.0000, 4.287126259287104E+07, 4.162478879094318E+08, -1.722083945119414E+07,
2460602.500000000, A.D. 2024-Oct-19 00:00:00.0000, 3.313783076957598E+07, 4.167839502226046E+08, -1.722446656722543E+07,
2460609.500000000, A.D. 2024-Oct-26 00:00:00.0000, 2.338260876509565E+07, 4.170441099293072E+08, -1.721667261605030E+07,
2460616.500000000, A.D. 2024-Nov-02 00:00:00.0000, 1.361201096818699E+07, 4.170273934985991E+08, -1.719742993238446E+07,
2460623.500000000, A.D. 2024-Nov-09 00:00:00.0000, 3.832495902339552E+06, 4.167329078786361E+08, -1.716671431466484E+07,
2460630.500000000, A.D. 2024-Nov-16 00:00:00.0000, -5.949430799403371E+06, 4.161598418422586E+08, -1.712450508443752E+07,
2460637.500000000, A.D. 2024-Nov-23 00:00:00.0000, -1.572721336804041E+07, 4.153074674572641E+08, -1.707078516969395E+07,
2460644.500000000, A.D. 2024-Nov-30 00:00:00.0000, -2.549424261706166E+07, 4.141751416462088E+08, -1.700554123494798E+07,
2460651.500000000, A.D. 2024-Dec-07 00:00:00.0000, -3.524385199168568E+07, 4.127623082650152E+08, -1.692876386239263E+07,
2460658.500000000, A.D. 2024-Dec-14 00:00:00.0000, -4.496931364274841E+07, 4.110685019350120E+08, -1.684044762144506E+07,
2460665.500000000, A.D. 2024-Dec-21 00:00:00.0000, -5.466383684706019E+07, 4.090933523968638E+08, -1.674059091583231E+07,
2460672.500000000, A.D. 2024-Dec-28 00:00:00.0000, -6.432056680774146E+07, 4.068365864235187E+08, -1.662919603107262E+07,
2460679.500000000, A.D. 2025-Jan-04 00:00:00.0000, -7.393258124810438E+07, 4.042980296786076E+08, -1.650626942630802E+07,
2460686.500000000, A.D. 2025-Jan-11 00:00:00.0000, -8.349288662862118E+07, 4.014776101941893E+08, -1.637182196855322E+07,
2460693.500000000, A.D. 2025-Jan-18 00:00:00.0000, -9.299441491243479E+07, 3.983753625601474E+08, -1.622586910065904E+07,
2460700.500000000, A.D. 2025-Jan-25 00:00:00.0000, -1.024300206467655E+08, 3.949914323626349E+08, -1.606843100435504E+07,
2460707.500000000, A.D. 2025-Feb-01 00:00:00.0000, -1.117924781820195E+08, 3.913260808551080E+08, -1.589953277861476E+07,
2460714.500000000, A.D. 2025-Feb-08 00:00:00.0000, -1.210744789815769E+08, 3.873796898951319E+08, -1.571920463740611E+07,
2460721.500000000, A.D. 2025-Feb-15 00:00:00.0000, -1.302686290063641E+08, 3.831527671392927E+08, -1.552748213115267E+07,
$$EOE